{
    "links": {
        "self": "http://www.neowsapp.com/rest/v1/neo/3972417?api_key=iIulBulltgU6a56xZRHN4H3l9WmuAYTsLGpBGhQ2"
    },
    "id": "3972417",
    "neo_reference_id": "3972417",
    "name": "(2020 AP)",
    "designation": "2020 AP",
    "nasa_jpl_url": "http://ssd.jpl.nasa.gov/sbdb.cgi?sstr=3972417",
    "absolute_magnitude_h": 25.5,
    "estimated_diameter": {
        "kilometers": {
            "estimated_diameter_min": 0.0211132445,
            "estimated_diameter_max": 0.0472106499
        },
        "meters": {
            "estimated_diameter_min": 21.113244479,
            "estimated_diameter_max": 47.2106498806
        },
        "miles": {
            "estimated_diameter_min": 0.0131191578,
            "estimated_diameter_max": 0.0293353287
        },
        "feet": {
            "estimated_diameter_min": 69.2691770164,
            "estimated_diameter_max": 154.8905885541
        }
    },
    "is_potentially_hazardous_asteroid": false,
    "close_approach_data": [
        {
            "close_approach_date": "2019-12-26",
            "close_approach_date_full": "2019-Dec-26 10:07",
            "epoch_date_close_approach": 1577354820000,
            "relative_velocity": {
                "kilometers_per_second": "16.3299375414",
                "kilometers_per_hour": "58787.7751491959",
                "miles_per_hour": "36528.4372864545"
            },
            "miss_distance": {
                "astronomical": "0.0208289168",
                "lunar": "8.1024486352",
                "kilometers": "3115961.587687216",
                "miles": "1936168.7492509408"
            },
            "orbiting_body": "Earth"
        }
    ],
    "orbital_data": {
        "orbit_id": "2",
        "orbit_determination_date": "2020-01-05 05:57:00",
        "first_observation_date": "2020-01-01",
        "last_observation_date": "2020-01-05",
        "data_arc_in_days": 4,
        "observations_used": 29,
        "orbit_uncertainty": "8",
        "minimum_orbit_intersection": ".0089443",
        "jupiter_tisserand_invariant": "3.251",
        "epoch_osculation": "2458850.5",
        "eccentricity": ".6659443058049836",
        "semi_major_axis": "2.292425624777637",
        "inclination": "7.922577995478501",
        "ascending_node_longitude": "279.203210508036",
        "orbital_period": "1267.772445751968",
        "perihelion_distance": ".7657978334755378",
        "perihelion_argument": "112.5871821155917",
        "aphelion_distance": "3.819053416079737",
        "perihelion_time": "2458804.173302431694",
        "mean_anomaly": "13.15505095608698",
        "mean_motion": ".2839626316270576",
        "equinox": "J2000",
        "orbit_class": {
            "orbit_class_type": "APO",
            "orbit_class_description": "Near-Earth asteroid orbits which cross the Earth’s orbit similar to that of 1862 Apollo",
            "orbit_class_range": "a (semi-major axis) > 1.0 AU; q (perihelion) < 1.017 AU"
        }
    },
    "is_sentry_object": false
}